GSAT0101 (GALILEO-PFM)  
1 37846U 11060A   25018.41323398 -.00000093  00000+0  00000+0 0  9996
2 37846  57.1173 355.7102 0003552 332.2956  27.6759  1.70475885 82340
GSAT0102 (GALILEO-FM2)  
1 37847U 11060B   25018.48140462 -.00000092  00000+0  00000+0 0  9992
2 37847  57.1180 355.7086 0005346 319.3332 127.7717  1.70475434 82354
GSAT0103 (GALILEO-FM3)  
1 38857U 12055A   25015.51988387 -.00000021  00000+0  00000+0 0  9998
2 38857  55.5082 115.7684 0003816 262.8458  97.1105  1.70473446 76320
GSAT0201 (GALILEO 5)    
1 40128U 14050A   25018.14480003 -.00000082  00000+0  00000+0 0  9990
2 40128  49.4321 294.4019 1617886 159.5449 207.7960  1.85519726 68765
GSAT0202 (GALILEO 6)    
1 40129U 14050B   25016.78531062 -.00000075  00000+0  00000+0 0  9993
2 40129  49.4495 293.5366 1617352 160.2803 206.8131  1.85520470 70901
GSAT0203 (GALILEO 7)    
1 40544U 15017A   25017.01881967 -.00000096  00000+0  00000+0 0  9990
2 40544  56.9121 355.6528 0005941 278.0703  81.8505  1.70475838 61066
GSAT0204 (GALILEO 8)    
1 40545U 15017B   25017.27356387 -.00000096  00000+0  00000+0 0  9992
2 40545  56.9183 355.6621 0005516 268.6799  91.2455  1.70475611 23456
GSAT0205 (GALILEO 9)    
1 40889U 15045A   25015.86911334  .00000046  00000+0  00000+0 0  9990
2 40889  55.1256 235.8940 0006385  43.9588 316.1626  1.70473322 58192
GSAT0206 (GALILEO 10)   
1 40890U 15045B   25017.26289235  .00000045  00000+0  00000+0 0  9995
2 40890  55.1239 235.8507 0004285  45.3669 314.7308  1.70473362 58248
GSAT0209 (GALILEO 12)   
1 41174U 15079A   25017.43172199 -.00000015  00000+0  00000+0 0  9995
2 41174  55.5284 115.4269 0002922 317.8881  42.1011  1.70474746 55983
GSAT0208 (GALILEO 11)   
1 41175U 15079B   25011.78575138 -.00000035  00000+0  00000+0 0  9990
2 41175  55.5243 115.5799 0002097 320.5446  39.4175  1.70474473 56303
GSAT0211 (GALILEO 14)   
1 41549U 16030A   25016.60206572  .00000045  00000+0  00000+0 0  9992
2 41549  55.2734 235.9033 0004182  22.5671 337.5178  1.70473374 53866
GSAT0210 (GALILEO 13)   
1 41550U 16030B   25018.03306852  .00000048  00000+0  00000+0 0  9998
2 41550  55.2723 235.8620 0000560 164.3572 195.7040  1.70473752 53882
GSAT0207 (GALILEO 15)   
1 41859U 16069A   25015.96545170 -.00000020  00000+0  00000+0 0  9990
2 41859  55.1941 115.4168 0003232 296.6845  63.2857  1.70474668 50807
GSAT0212 (GALILEO 16)   
1 41860U 16069B   25018.16584179 -.00000014  00000+0  00000+0 0  9992
2 41860  55.1929 115.3518 0001632 349.4382  10.5726  1.70475052 50873
GSAT0213 (GALILEO 17)   
1 41861U 16069C   25012.66820089 -.00000034  00000+0  00000+0 0  9997
2 41861  55.1916 115.5113 0003590 272.5998  87.3399  1.70474925 50648
GSAT0214 (GALILEO 18)   
1 41862U 16069D   25016.91977851 -.00000016  00000+0  00000+0 0  9990
2 41862  55.1927 115.3867 0002992 273.3594  86.6154  1.70474808 50844
GSAT0215 (GALILEO 19)   
1 43055U 17079A   25017.99649705  .00000048  00000+0  00000+0 0  9995
2 43055  55.2497 235.6836 0001272  15.5433 344.5200  1.70474224 44206
GSAT0216 (GALILEO 20)   
1 43056U 17079B   25016.52828814  .00000045  00000+0  00000+0 0  9991
2 43056  55.2511 235.7241 0002164 328.1848  31.8687  1.70474302 44166
GSAT0217 (GALILEO 21)   
1 43057U 17079C   25014.98911943  .00000049  00000+0  00000+0 0  9990
2 43057  55.2494 235.7650 0002760 354.6945   5.3786  1.70474110 44157
GSAT0218 (GALILEO 22)   
1 43058U 17079D   25016.38231449  .00000045  00000+0  00000+0 0  9999
2 43058  55.2492 235.7241 0002168 315.4064  44.6436  1.70474174 44171
GSAT0221 (GALILEO 25)   
1 43564U 18060A   25016.28338882 -.00000097  00000+0  00000+0 0  9998
2 43564  57.2926 355.7268 0006418 289.4710  70.4468  1.70475701 40354
GSAT0222 (GALILEO 26)   
1 43565U 18060B   25018.26198119 -.00000093  00000+0  00000+0 0  9992
2 43565  57.2959 355.6758 0005361 270.1150  89.8137  1.70475484 40439
GSAT0219 (GALILEO 23)   
1 43566U 18060C   25016.13720103 -.00000097  00000+0  00000+0 0  9995
2 43566  57.2954 355.7349 0005716 295.7591  64.1689  1.70475640 40373
GSAT0220 (GALILEO 24)   
1 43567U 18060D   25016.94456461 -.00000096  00000+0  00000+0 0  9997
2 43567  57.2949 355.7130 0005927 291.8254  68.0994  1.70475708 40370
GSAT0223 (GALILEO 27)   
1 49809U 21116A   25016.21267094 -.00000097  00000+0  00000+0 0  9991
2 49809  57.2851 355.6254 0003703 260.8158 100.4987  1.70475799 19360
GSAT0224 (GALILEO 28)   
1 49810U 21116B   25017.38592112 -.00000095  00000+0  00000+0 0  9992
2 49810  57.2857 355.5925 0003083 269.3869 204.5112  1.70475870 19418
GSAT0225 (GALILEO 29)   
1 59598U 24079A   25018.40014545 -.00000015  00000+0  00000+0 0  9992
2 59598  54.8138 115.4847 0002973 227.3179 140.3577  1.70474956  4542
GSAT0227 (GALILEO 30)   
1 59600U 24079C   25016.81122352 -.00000017  00000+0  00000+0 0  9997
2 59600  54.8062 115.5293 0002128 133.5553 226.4701  1.70475025  4569
GSAT0232 (GALILEO 32)   
1 61182U 24167A   25017.95695293  .00000048  00000+0  00000+0 0  9991
2 61182  55.3599 235.4499 0001635 179.2226 359.4193  1.70473778  2095
GSAT0226 (GALILEO 31)   
1 61183U 24167B   25016.60743806  .00000046  00000+0  00000+0 0  9995
2 61183  55.3587 235.4926 0001687 100.6102  82.3417  1.70473811  2040
